ORBCOMM-X               
1 21576U 91050C   24233.16623853  .00001161  00000+0  36212-3 0  9999
2 21576  98.3852 299.3507 0004093  34.0217 326.1235 14.42666444738704
ORBCOMM FM01            
1 23545U 95017A   24233.63452849  .00013830  00000+0  17478-2 0  9999
2 23545  69.9662  99.4878 0002558  69.8009 290.3416 14.81976522567846
ORBCOMM FM02            
1 23546U 95017B   24233.14744973  .00013947  00000+0  17757-2 0  9997
2 23546  69.9690 120.2694 0004256  56.9877 303.1681 14.81659289567412
ORBCOMM FM11            
1 25114U 97084C   24233.56631588  .00004765  00000+0  14509-2 0  9999
2 25114  45.0153  10.6283 0006210 155.9373 204.1769 14.42996789398014
ORBCOMM FM12            
1 25115U 97084D   24233.52881052  .00004822  00000+0  14692-2 0  9996
2 25115  45.0161  10.5393 0005355 158.9532 201.1539 14.42953224397809
